{
  "type": "FeatureCollection",
  "features": [
    {
      "type": "Feature",
      "properties": {
        "norad_id": 32175,
        "name": "FENGYUN 1C DEB",
        "group": "fengyun-1c-debris",
        "lat": 80.28681889481368,
        "lon": -94.0251225825749,
        "alt_km": 942.8833643502803,
        "timestamp": "2025-12-08T08:59:01.051659+00:00",
        "meta_object_name": "FENGYUN 1C DEB",
        "meta_object_id": "1999-025CTV",
        "meta_epoch": "2025-12-07T05:01:51.104928",
        "meta_mean_motion": 13.9473542,
        "meta_eccentricity": 0.01526008,
        "meta_inclination": 98.8235,
        "meta_ra_of_asc_node": 330.0136,
        "meta_arg_of_pericenter": 338.2032,
        "meta_mean_anomaly": 21.2683,
        "meta_ephemeris_type": 0,
        "meta_classification_type": "U",
        "meta_norad_cat_id": 32175,
        "meta_element_set_no": 999,
        "meta_rev_at_epoch": 59763,
        "meta_bstar": 0.0045384397,
        "meta_mean_motion_dot": 6.661e-05,
        "meta_mean_motion_ddot": 0,
        "tle_line1": "1 32175U 99025CTV 25341.20961927  .00006661  00000+0  45384-2 0  9998",
        "tle_line2": "2 32175  98.8235 330.0136 0152600 338.2032  21.2683 13.94735420597636"
      },
      "geometry": {
        "type": "Point",
        "coordinates": [
          -94.0251225825749,
          80.28681889481368
        ]
      }
    },
    {
      "type": "Feature",
      "properties": {
        "norad_id": 32177,
        "name": "FENGYUN 1C DEB",
        "group": "fengyun-1c-debris",
        "lat": -25.48185710614641,
        "lon": -4.3334846211983695,
        "alt_km": 707.0908347729446,
        "timestamp": "2025-12-08T08:59:01.051669+00:00",
        "meta_object_name": "FENGYUN 1C DEB",
        "meta_object_id": "1999-025CTX",
        "meta_epoch": "2025-12-07T18:15:33.348096",
        "meta_mean_motion": 14.56128572,
        "meta_eccentricity": 0.00521393,
        "meta_inclination": 99.044,
        "meta_ra_of_asc_node": 350.6485,
        "meta_arg_of_pericenter": 59.9632,
        "meta_mean_anomaly": 300.6721,
        "meta_ephemeris_type": 0,
        "meta_classification_type": "U",
        "meta_norad_cat_id": 32177,
        "meta_element_set_no": 999,
        "meta_rev_at_epoch": 70966,
        "meta_bstar": 0.0024462544,
        "meta_mean_motion_dot": 0.00010955,
        "meta_mean_motion_ddot": 0,
        "tle_line1": "1 32177U 99025CTX 25341.76080264  .00010955  00000+0  24463-2 0  9993",
        "tle_line2": "2 32177  99.0440 350.6485 0052139  59.9632 300.6721 14.56128572709661"
      },
      "geometry": {
        "type": "Point",
        "coordinates": [
          -4.3334846211983695,
          -25.48185710614641
        ]
      }
    },
    {
      "type": "Feature",
      "properties": {
        "norad_id": 32178,
        "name": "FENGYUN 1C DEB",
        "group": "fengyun-1c-debris",
        "lat": -11.372794464916861,
        "lon": -14.832226756050328,
        "alt_km": 753.1786034867819,
        "timestamp": "2025-12-08T08:59:01.051679+00:00",
        "meta_object_name": "FENGYUN 1C DEB",
        "meta_object_id": "1999-025CTY",
        "meta_epoch": "2025-12-07T17:50:56.721120",
        "meta_mean_motion": 14.22943585,
        "meta_eccentricity": 0.00947686,
        "meta_inclination": 100.3035,
        "meta_ra_of_asc_node": 342.3342,
        "meta_arg_of_pericenter": 337.1658,
        "meta_mean_anomaly": 22.5314,
        "meta_ephemeris_type": 0,
        "meta_classification_type": "U",
        "meta_norad_cat_id": 32178,
        "meta_element_set_no": 999,
        "meta_rev_at_epoch": 63932,
        "meta_bstar": 0.0022460255,
        "meta_mean_motion_dot": 5.238e-05,
        "meta_mean_motion_ddot": 0,
        "tle_line1": "1 32178U 99025CTY 25341.74371205  .00005238  00000+0  22460-2 0  9993",
        "tle_line2": "2 32178 100.3035 342.3342 0094768 337.1658  22.5314 14.22943585639326"
      },
      "geometry": {
        "type": "Point",
        "coordinates": [
          -14.832226756050328,
          -11.372794464916861
        ]
      }
    },
    {
      "type": "Feature",
      "properties": {
        "norad_id": 32179,
        "name": "FENGYUN 1C DEB",
        "group": "fengyun-1c-debris",
        "lat": -50.021678062190794,
        "lon": 42.07543258982242,
        "alt_km": 917.6391299816405,
        "timestamp": "2025-12-08T08:59:01.051690+00:00",
        "meta_object_name": "FENGYUN 1C DEB",
        "meta_object_id": "1999-025CTZ",
        "meta_epoch": "2025-12-07T09:20:45.955392",
        "meta_mean_motion": 14.03676641,
        "meta_eccentricity": 0.01449803,
        "meta_inclination": 98.9107,
        "meta_ra_of_asc_node": 30.3257,
        "meta_arg_of_pericenter": 204.7708,
        "meta_mean_anomaly": 168.6795,
        "meta_ephemeris_type": 0,
        "meta_classification_type": "U",
        "meta_norad_cat_id": 32179,
        "meta_element_set_no": 999,
        "meta_rev_at_epoch": 65653,
        "meta_bstar": 0.00018713959,
        "meta_mean_motion_dot": 2.79e-06,
        "meta_mean_motion_ddot": 0,
        "tle_line1": "1 32179U 99025CTZ 25341.38942078  .00000279  00000+0  18714-3 0  9994",
        "tle_line2": "2 32179  98.9107  30.3257 0144980 204.7708 168.6795 14.03676641656537"
      },
      "geometry": {
        "type": "Point",
        "coordinates": [
          42.07543258982242,
          -50.021678062190794
        ]
      }
    },
    {
      "type": "Feature",
      "properties": {
        "norad_id": 32180,
        "name": "FENGYUN 1C DEB",
        "group": "fengyun-1c-debris",
        "lat": -23.28582012697177,
        "lon": -161.7479807219746,
        "alt_km": 866.095940132157,
        "timestamp": "2025-12-08T08:59:01.051700+00:00",
        "meta_object_name": "FENGYUN 1C DEB",
        "meta_object_id": "1999-025CUA",
        "meta_epoch": "2025-12-07T20:42:16.709760",
        "meta_mean_motion": 13.82325784,
        "meta_eccentricity": 0.01361772,
        "meta_inclination": 99.5864,
        "meta_ra_of_asc_node": 21.9027,
        "meta_arg_of_pericenter": 223.3428,
        "meta_mean_anomaly": 315.9857,
        "meta_ephemeris_type": 0,
        "meta_classification_type": "U",
        "meta_norad_cat_id": 32180,
        "meta_element_set_no": 999,
        "meta_rev_at_epoch": 94200,
        "meta_bstar": 0.00016713604,
        "meta_mean_motion_dot": 1.47e-06,
        "meta_mean_motion_ddot": 0,
        "tle_line1": "1 32180U 99025CUA 25341.86269340  .00000147  00000+0  16714-3 0  9995",
        "tle_line2": "2 32180  99.5864  21.9027 0136177 223.3428 315.9857 13.82325784942003"
      },
      "geometry": {
        "type": "Point",
        "coordinates": [
          -161.7479807219746,
          -23.28582012697177
        ]
      }
    },
    {
      "type": "Feature",
      "properties": {
        "norad_id": 32181,
        "name": "FENGYUN 1C DEB",
        "group": "fengyun-1c-debris",
        "lat": 53.41856277430025,
        "lon": 72.56851767580638,
        "alt_km": 663.0010615370629,
        "timestamp": "2025-12-08T08:59:01.051710+00:00",
        "meta_object_name": "FENGYUN 1C DEB",
        "meta_object_id": "1999-025CUB",
        "meta_epoch": "2025-12-07T03:35:21.056064",
        "meta_mean_motion": 14.55978002,
        "meta_eccentricity": 0.00739327,
        "meta_inclination": 99.4736,
        "meta_ra_of_asc_node": 84.1819,
        "meta_arg_of_pericenter": 101.9063,
        "meta_mean_anomaly": 17.2028,
        "meta_ephemeris_type": 0,
        "meta_classification_type": "U",
        "meta_norad_cat_id": 32181,
        "meta_element_set_no": 999,
        "meta_rev_at_epoch": 96639,
        "meta_bstar": 0.001703453,
        "meta_mean_motion_dot": 7.721e-05,
        "meta_mean_motion_ddot": 0,
        "tle_line1": "1 32181U 99025CUB 25341.14954926  .00007721  00000+0  17035-2 0  9999",
        "tle_line2": "2 32181  99.4736  84.1819 0073932 101.9063  17.2028 14.55978002966394"
      },
      "geometry": {
        "type": "Point",
        "coordinates": [
          72.56851767580638,
          53.41856277430025
        ]
      }
    },
    {
      "type": "Feature",
      "properties": {
        "norad_id": 32183,
        "name": "FENGYUN 1C DEB",
        "group": "fengyun-1c-debris",
        "lat": -49.356666430511396,
        "lon": -156.5776426706423,
        "alt_km": 894.4413304179525,
        "timestamp": "2025-12-08T08:59:01.051721+00:00",
        "meta_object_name": "FENGYUN 1C DEB",
        "meta_object_id": "1999-025CUD",
        "meta_epoch": "2025-12-07T21:40:51.669120",
        "meta_mean_motion": 14.10067553,
        "meta_eccentricity": 0.00427535,
        "meta_inclination": 98.7135,
        "meta_ra_of_asc_node": 33.2576,
        "meta_arg_of_pericenter": 74.3542,
        "meta_mean_anomaly": 286.234,
        "meta_ephemeris_type": 0,
        "meta_classification_type": "U",
        "meta_norad_cat_id": 32183,
        "meta_element_set_no": 999,
        "meta_rev_at_epoch": 72696,
        "meta_bstar": 0.00096374459,
        "meta_mean_motion_dot": 1.675e-05,
        "meta_mean_motion_ddot": 0,
        "tle_line1": "1 32183U 99025CUD 25341.90337580  .00001675  00000+0  96374-3 0  9992",
        "tle_line2": "2 32183  98.7135  33.2576 0042753  74.3542 286.2340 14.10067553726961"
      },
      "geometry": {
        "type": "Point",
        "coordinates": [
          -156.5776426706423,
          -49.356666430511396
        ]
      }
    }
  ]
}